start=new Date('2022-02-02T00:00:00.000Z').valueOf();
sats=[{"MEAN_ANOMALY":"297.8442","SEMIMAJOR_AXIS":"6925.358","REF_FRAME":"TEME","OBJECT_NAME":"STARLINK-2143","PERIAPSIS":"546.111","SITE":"AFETR","ECCENTRICITY":"0.00016050","OBJECT_TYPE":"PAYLOAD","CLASSIFICATION_TYPE":"U","EPHEMERIS_TYPE":"0","MEAN_ELEMENT_THEORY":"SGP4","COUNTRY_CODE":"US","FILE":"3289495","MEAN_MOTION_DOT":"0.00000249","PERIOD":"95.592","MEAN_MOTION_DDOT":"0.0000000000000","ARG_OF_PERICENTER":"62.2710","OBJECT_ID":"2021-017M","TLE_LINE2":"2 47733  53.0497 102.6008 0001605  62.2710 297.8442 15.06397034 51304","DECAY_DATE":null,"ELEMENT_SET_NO":"999","CENTER_NAME":"EARTH","GP_ID":"195097786","RA_OF_ASC_NODE":"102.6008","MEAN_MOTION":"15.06397034","RCS_SIZE":"LARGE","TIME_SYSTEM":"UTC","APOAPSIS":"548.334","BSTAR":"0.00003561000000","REV_AT_EPOCH":"5130","LAUNCH_DATE":"2021-03-04","TLE_LINE1":"1 47733U 21017M   22032.53767889  .00000249  00000-0  35610-4 0  9991","INCLINATION":"53.0497","NORAD_CAT_ID":"47733","EPOCH":"2022-02-01T12:54:15.456096"},{"BSTAR":"0.00003652800000","REV_AT_EPOCH":"5214","ELEMENT_SET_NO":"999","CENTER_NAME":"EARTH","GP_ID":"195122459","RA_OF_ASC_NODE":"91.0263","MEAN_MOTION":"15.06397297","RCS_SIZE":"LARGE","APOAPSIS":"548.288","TIME_SYSTEM":"UTC","INCLINATION":"53.0560","NORAD_CAT_ID":"47734","EPOCH":"2022-02-01T21:19:49.092096","LAUNCH_DATE":"2021-03-04","TLE_LINE1":"1 47734U 21017N   22032.88876264  .00000263  00000-0  36528-4 0  9993","PERIAPSIS":"546.156","SITE":"AFETR","MEAN_ANOMALY":"291.0696","SEMIMAJOR_AXIS":"6925.357","REF_FRAME":"TEME","OBJECT_NAME":"STARLINK-2144","FILE":"3289675","COUNTRY_CODE":"US","MEAN_MOTION_DOT":"0.00000263","PERIOD":"95.592","MEAN_MOTION_DDOT":"0.0000000000000","ARG_OF_PERICENTER":"69.0457","OBJECT_ID":"2021-017N","DECAY_DATE":null,"TLE_LINE2":"2 47734  53.0560  91.0263 0001539  69.0457 291.0696 15.06397297 52140","ECCENTRICITY":"0.00015390","OBJECT_TYPE":"PAYLOAD","EPHEMERIS_TYPE":"0","CLASSIFICATION_TYPE":"U","MEAN_ELEMENT_THEORY":"SGP4"},{"FILE":"3289675","COUNTRY_CODE":"US","PERIOD":"95.592","MEAN_MOTION_DDOT":"0.0000000000000","ARG_OF_PERICENTER":"62.3008","MEAN_MOTION_DOT":"-0.00000080","OBJECT_ID":"2021-017P","DECAY_DATE":null,"TLE_LINE2":"2 47735  53.0570  16.8956 0001525  62.3008 297.8136 15.06397000 53145","OBJECT_TYPE":"PAYLOAD","ECCENTRICITY":"0.00015250","CLASSIFICATION_TYPE":"U","EPHEMERIS_TYPE":"0","MEAN_ELEMENT_THEORY":"SGP4","PERIAPSIS":"546.167","SITE":"AFETR","MEAN_ANOMALY":"297.8136","SEMIMAJOR_AXIS":"6925.358","REF_FRAME":"TEME","OBJECT_NAME":"STARLINK-2146","INCLINATION":"53.0570","NORAD_CAT_ID":"47735","EPOCH":"2022-02-01T16:33:49.437792","LAUNCH_DATE":"2021-03-04","TLE_LINE1":"1 47735U 21017P   22032.69015553 -.00000080  00000-0  13544-4 0  9990","BSTAR":"0.00001354400000","REV_AT_EPOCH":"5314","ELEMENT_SET_NO":"999","GP_ID":"195123710","CENTER_NAME":"EARTH","RA_OF_ASC_NODE":"16.8956","MEAN_MOTION":"15.06397000","RCS_SIZE":"LARGE","APOAPSIS":"548.279","TIME_SYSTEM":"UTC"},{"TLE_LINE1":"1 47736U 21017Q   22032.85651244 -.00003230  00000-0 -19812-3 0  9996","LAUNCH_DATE":"2021-03-04","INCLINATION":"53.0550","EPOCH":"2022-02-01T20:33:22.674816","NORAD_CAT_ID":"47736","GP_ID":"195123453","CENTER_NAME":"EARTH","RA_OF_ASC_NODE":"81.1694","ELEMENT_SET_NO":"999","TIME_SYSTEM":"UTC","APOAPSIS":"548.355","RCS_SIZE":"LARGE","MEAN_MOTION":"15.06386482","REV_AT_EPOCH":"5231","BSTAR":"-0.00019812000000","EPHEMERIS_TYPE":"0","CLASSIFICATION_TYPE":"U","OBJECT_TYPE":"PAYLOAD","ECCENTRICITY":"0.00015890","MEAN_ELEMENT_THEORY":"SGP4","PERIOD":"95.593","MEAN_MOTION_DDOT":"0.0000000000000","ARG_OF_PERICENTER":"58.1687","MEAN_MOTION_DOT":"-0.00003230","FILE":"3289675","COUNTRY_CODE":"US","DECAY_DATE":null,"TLE_LINE2":"2 47736  53.0550  81.1694 0001589  58.1687 301.9457 15.06386482 52317","OBJECT_ID":"2021-017Q","SEMIMAJOR_AXIS":"6925.390","MEAN_ANOMALY":"301.9457","OBJECT_NAME":"STARLINK-2147","REF_FRAME":"TEME","SITE":"AFETR","PERIAPSIS":"546.155"},{"INCLINATION":"53.0559","NORAD_CAT_ID":"47737","EPOCH":"2022-02-01T11:20:46.112352","LAUNCH_DATE":"2021-03-04","TLE_LINE1":"1 47737U 21017R   22032.47275593  .00091021  00000-0  59296-2 0  9996","BSTAR":"0.00592960000000","REV_AT_EPOCH":"5248","ELEMENT_SET_NO":"999","GP_ID":"195097792","CENTER_NAME":"EARTH","RA_OF_ASC_NODE":"17.8662","RCS_SIZE":"LARGE","MEAN_MOTION":"15.07151311","TIME_SYSTEM":"UTC","APOAPSIS":"545.603","COUNTRY_CODE":"US","FILE":"3289496","PERIOD":"95.544","MEAN_MOTION_DOT":"0.00091021","MEAN_MOTION_DDOT":"0.0000000000000","ARG_OF_PERICENTER":"89.8305","OBJECT_ID":"2021-017R","TLE_LINE2":"2 47737  53.0559  17.8662 0000998  89.8305 270.2799 15.07151311 52486","DECAY_DATE":null,"ECCENTRICITY":"0.00009980","OBJECT_TYPE":"PAYLOAD","CLASSIFICATION_TYPE":"U","EPHEMERIS_TYPE":"0","MEAN_ELEMENT_THEORY":"SGP4","PERIAPSIS":"544.221","SITE":"AFETR","MEAN_ANOMALY":"270.2799","SEMIMAJOR_AXIS":"6923.047","REF_FRAME":"TEME","OBJECT_NAME":"STARLINK-2148"},{"MEAN_ANOMALY":"159.3590","SEMIMAJOR_AXIS":"6925.323","REF_FRAME":"TEME","OBJECT_NAME":"STARLINK-2149","PERIAPSIS":"544.926","SITE":"AFETR","OBJECT_TYPE":"PAYLOAD","ECCENTRICITY":"0.00032670","CLASSIFICATION_TYPE":"U","EPHEMERIS_TYPE":"0","MEAN_ELEMENT_THEORY":"SGP4","COUNTRY_CODE":"US","FILE":"3289399","PERIOD":"95.592","MEAN_MOTION_DDOT":"0.0000000000000","ARG_OF_PERICENTER":"200.7267","MEAN_MOTION_DOT":"0.00012600","OBJECT_ID":"2021-017S","TLE_LINE2":"2 47738  53.0538  82.5944 0003267 200.7267 159.3590 15.06408316 52260","DECAY_DATE":null,"ELEMENT_SET_NO":"999","CENTER_NAME":"EARTH","GP_ID":"195091612","RA_OF_ASC_NODE":"82.5944","MEAN_MOTION":"15.06408316","RCS_SIZE":"LARGE","APOAPSIS":"549.451","TIME_SYSTEM":"UTC","BSTAR":"0.00086302000000","REV_AT_EPOCH":"5226","LAUNCH_DATE":"2021-03-04","TLE_LINE1":"1 47738U 21017S   22032.53951849  .00012600  00000-0  86302-3 0  9994","INCLINATION":"53.0538","NORAD_CAT_ID":"47738","EPOCH":"2022-02-01T12:56:54.397536"},{"TLE_LINE1":"1 47739U 21017T   22032.65332664  .00001369  00000-0  11081-3 0  9998","LAUNCH_DATE":"2021-03-04","EPOCH":"2022-02-01T15:40:47.421696","NORAD_CAT_ID":"47739","INCLINATION":"53.0544","TIME_SYSTEM":"UTC","APOAPSIS":"548.244","MEAN_MOTION":"15.06401540","RCS_SIZE":"LARGE","CENTER_NAME":"EARTH","GP_ID":"195123211","RA_OF_ASC_NODE":"107.0803","ELEMENT_SET_NO":"999","REV_AT_EPOCH":"5193","BSTAR":"0.00011081000000","MEAN_ELEMENT_THEORY":"SGP4","EPHEMERIS_TYPE":"0","CLASSIFICATION_TYPE":"U","OBJECT_TYPE":"PAYLOAD","ECCENTRICITY":"0.00014950","DECAY_DATE":null,"TLE_LINE2":"2 47739  53.0544 107.0803 0001495  69.3144 290.8005 15.06401540 51936","OBJECT_ID":"2021-017T","PERIOD":"95.592","MEAN_MOTION_DDOT":"0.0000000000000","MEAN_MOTION_DOT":"0.00001369","ARG_OF_PERICENTER":"69.3144","FILE":"3289675","COUNTRY_CODE":"US","OBJECT_NAME":"STARLINK-2150","REF_FRAME":"TEME","SEMIMAJOR_AXIS":"6925.344","MEAN_ANOMALY":"290.8005","SITE":"AFETR","PERIAPSIS":"546.173"},{"TLE_LINE2":"2 47740  53.0532  92.4664 0001761  67.3158 292.8017 15.06408395 52128","DECAY_DATE":null,"OBJECT_ID":"2021-017U","MEAN_MOTION_DDOT":"0.0000000000000","PERIOD":"95.592","MEAN_MOTION_DOT":"0.00015256","ARG_OF_PERICENTER":"67.3158","COUNTRY_CODE":"US","FILE":"3289675","MEAN_ELEMENT_THEORY":"SGP4","EPHEMERIS_TYPE":"0","CLASSIFICATION_TYPE":"U","OBJECT_TYPE":"PAYLOAD","ECCENTRICITY":"0.00017610","SITE":"AFETR","PERIAPSIS":"545.968","OBJECT_NAME":"STARLINK-2152","REF_FRAME":"TEME","SEMIMAJOR_AXIS":"6925.323","MEAN_ANOMALY":"292.8017","EPOCH":"2022-02-01T13:38:03.071040","NORAD_CAT_ID":"47740","INCLINATION":"53.0532","TLE_LINE1":"1 47740U 21017U   22032.56809110  .00015256  00000-0  10406-2 0  9994","LAUNCH_DATE":"2021-03-04","REV_AT_EPOCH":"5212","BSTAR":"0.00104060000000","APOAPSIS":"548.407","TIME_SYSTEM":"UTC","MEAN_MOTION":"15.06408395","RCS_SIZE":"LARGE","CENTER_NAME":"EARTH","GP_ID":"195123953","RA_OF_ASC_NODE":"92.4664","ELEMENT_SET_NO":"999"},{"REV_AT_EPOCH":"5212","BSTAR":"0.00000500740000","APOAPSIS":"548.306","TIME_SYSTEM":"UTC","MEAN_MOTION":"15.06389571","RCS_SIZE":"LARGE","GP_ID":"195122210","RA_OF_ASC_NODE":"91.2080","CENTER_NAME":"EARTH","ELEMENT_SET_NO":"999","EPOCH":"2022-02-01T20:21:26.278848","NORAD_CAT_ID":"47741","INCLINATION":"53.0547","TLE_LINE1":"1 47741U 21017V   22032.84822082 -.00000207  00000-0  50074-5 0  9998","LAUNCH_DATE":"2021-03-04","SITE":"AFETR","PERIAPSIS":"546.185","OBJECT_NAME":"STARLINK-2154","REF_FRAME":"TEME","SEMIMAJOR_AXIS":"6925.381","MEAN_ANOMALY":"288.6132","DECAY_DATE":null,"TLE_LINE2":"2 47741  53.0547  91.2080 0001531  71.5023 288.6132 15.06389571 52122","OBJECT_ID":"2021-017V","MEAN_MOTION_DOT":"-0.00000207","PERIOD":"95.593","MEAN_MOTION_DDOT":"0.0000000000000","ARG_OF_PERICENTER":"71.5023","FILE":"3289675","COUNTRY_CODE":"US","MEAN_ELEMENT_THEORY":"SGP4","CLASSIFICATION_TYPE":"U","EPHEMERIS_TYPE":"0","ECCENTRICITY":"0.00015310","OBJECT_TYPE":"PAYLOAD"},{"LAUNCH_DATE":"2021-03-04","TLE_LINE1":"1 47742U 21017W   22032.86020149  .00001984  00000-0  15206-3 0  9993","NORAD_CAT_ID":"47742","EPOCH":"2022-02-01T20:38:41.408736","INCLINATION":"53.0561","RCS_SIZE":"LARGE","MEAN_MOTION":"15.06393166","APOAPSIS":"548.177","TIME_SYSTEM":"UTC","ELEMENT_SET_NO":"999","CENTER_NAME":"EARTH","GP_ID":"195122460","RA_OF_ASC_NODE":"81.1623","BSTAR":"0.00015206000000","REV_AT_EPOCH":"5231","MEAN_ELEMENT_THEORY":"SGP4","ECCENTRICITY":"0.00013610","OBJECT_TYPE":"PAYLOAD","CLASSIFICATION_TYPE":"U","EPHEMERIS_TYPE":"0","OBJECT_ID":"2021-017W","TLE_LINE2":"2 47742  53.0561  81.1623 0001361  72.3616 287.7521 15.06393166 52316","DECAY_DATE":null,"COUNTRY_CODE":"US","FILE":"3289675","MEAN_MOTION_DDOT":"0.0000000000000","PERIOD":"95.593","ARG_OF_PERICENTER":"72.3616","MEAN_MOTION_DOT":"0.00001984","REF_FRAME":"TEME","OBJECT_NAME":"STARLINK-2156","MEAN_ANOMALY":"287.7521","SEMIMAJOR_AXIS":"6925.370","PERIAPSIS":"546.292","SITE":"AFETR"}];
